ONEWEB-0236             
1 48797U 21045AG  26062.60826053  .00000070  00000+0  15312-3 0  9994
2 48797  87.8941 280.2926 0001633  83.0921 277.0395 13.15547286230379
ONEWEB-0248             
1 48798U 21045AH  26062.62095016 -.00000001  00000+0 -37935-4 0  9996
2 48798  87.8956 280.2626 0001919 101.1329 259.0017 13.15550363230533
ONEWEB-0225             
1 48799U 21045AJ  26062.64311891  .00000013  00000+0  15291-5 0  9994
2 48799  87.8944 280.2745 0001676 109.5792 250.5520 13.15547510230545
ONEWEB-0215             
1 48800U 21045AK  26062.61302192  .00000040  00000+0  71456-4 0  9992
2 48800  87.8959 280.2527 0001836 111.6689 248.4637 13.15547950230418
ONEWEB-0216             
1 48801U 21045AL  26062.62254045 -.00001899  00000+0 -50801-2 0  9991
2 48801  87.8948 280.2698 0001163  84.9511 275.1752 13.15532454230424
ONEWEB-0239             
1 48802U 21045AM  26062.62727578 -.00000060  00000+0 -19218-3 0  9995
2 48802  87.8945 280.2840 0002118 109.2710 250.8650 13.15547238230461
ONEWEB-0249             
1 48967U 21060A   26062.56911703  .00000108  00000+0  24920-3 0  9999
2 48967  87.9000 249.7892 0001730  96.6371 263.4957 13.16593044225713
ONEWEB-0250             
1 48968U 21060B   26062.50146841  .00000061  00000+0  10898-3 0  9994
2 48968  87.9000 247.9027 0002653  89.1129 271.0311 13.25827275226218
ONEWEB-0252             
1 48970U 21060D   26062.59998484  .00000060  00000+0  12323-3 0  9998
2 48970  87.8998 249.7758 0001370  96.3403 263.7884 13.16593500225760
ONEWEB-0253             
1 48971U 21060E   26062.51290464  .00000138  00000+0  32738-3 0  9992
2 48971  87.8999 249.7988 0001640  99.3886 260.7431 13.16593636225681
ONEWEB-0254             
1 48972U 21060F   26062.52240430  .00000095  00000+0  21509-3 0  9998
2 48972  87.9003 249.7912 0001850 101.3317 258.8022 13.16593464225685
ONEWEB-0255             
1 48973U 21060G   26062.56040871  .00000059  00000+0  11980-3 0  9992
2 48973  87.8999 249.7932 0001764 102.6895 257.4433 13.16593655225762
ONEWEB-0256             
1 48974U 21060H   26062.51053388  .00000162  00000+0  39024-3 0  9999
2 48974  87.9002 249.8105 0001494  91.4840 268.6463 13.16593768225725
ONEWEB-0257             
1 48975U 21060J   26062.54298538  .00000001  00000+0 -31464-4 0  9995
2 48975  87.9000 249.7880 0001593 100.2470 259.8841 13.16593383225681
ONEWEB-0258             
1 48976U 21060K   26062.54457272 -.00000011  00000+0 -63472-4 0  9994
2 48976  87.8997 249.7990 0001679  92.7005 267.4318 13.16593286225699
ONEWEB-0259             
1 48977U 21060L   26062.53823355  .00000016  00000+0  89084-5 0  9994
2 48977  87.9002 249.7989 0001727  98.0087 262.1240 13.16593616225726
ONEWEB-0260             
1 48978U 21060M   26062.52952511  .00000002  00000+0 -27875-4 0  9996
2 48978  87.8999 249.8067 0001177  92.0592 268.0674 13.16594072225704
