[{"OBJECT_NAME":"ONEWEB-0236","OBJECT_ID":"2021-045AG","EPOCH":"2026-03-03T14:35:53.709792","MEAN_MOTION":13.15547286,"ECCENTRICITY":0.00016335,"INCLINATION":87.8941,"RA_OF_ASC_NODE":280.2926,"ARG_OF_PERICENTER":83.0921,"MEAN_ANOMALY":277.0395,"EPHEMERIS_TYPE":0,"CLASSIFICATION_TYPE":"U","NORAD_CAT_ID":48797,"ELEMENT_SET_NO":999,"REV_AT_EPOCH":23037,"BSTAR":0.00015311965,"MEAN_MOTION_DOT":7.0e-7,"MEAN_MOTION_DDOT":0},{"OBJECT_NAME":"ONEWEB-0248","OBJECT_ID":"2021-045AH","EPOCH":"2026-03-03T14:54:10.093824","MEAN_MOTION":13.15550363,"ECCENTRICITY":0.00019195,"INCLINATION":87.8956,"RA_OF_ASC_NODE":280.2626,"ARG_OF_PERICENTER":101.1329,"MEAN_ANOMALY":259.0017,"EPHEMERIS_TYPE":0,"CLASSIFICATION_TYPE":"U","NORAD_CAT_ID":48798,"ELEMENT_SET_NO":999,"REV_AT_EPOCH":23053,"BSTAR":-3.7934814e-5,"MEAN_MOTION_DOT":-1.0e-8,"MEAN_MOTION_DDOT":0},{"OBJECT_NAME":"ONEWEB-0225","OBJECT_ID":"2021-045AJ","EPOCH":"2026-03-03T15:26:05.473824","MEAN_MOTION":13.1554751,"ECCENTRICITY":0.00016767,"INCLINATION":87.8944,"RA_OF_ASC_NODE":280.2745,"ARG_OF_PERICENTER":109.5792,"MEAN_ANOMALY":250.552,"EPHEMERIS_TYPE":0,"CLASSIFICATION_TYPE":"U","NORAD_CAT_ID":48799,"ELEMENT_SET_NO":999,"REV_AT_EPOCH":23054,"BSTAR":1.529061e-6,"MEAN_MOTION_DOT":1.3e-7,"MEAN_MOTION_DDOT":0},{"OBJECT_NAME":"ONEWEB-0215","OBJECT_ID":"2021-045AK","EPOCH":"2026-03-03T14:42:45.093888","MEAN_MOTION":13.1554795,"ECCENTRICITY":0.00018367,"INCLINATION":87.8959,"RA_OF_ASC_NODE":280.2527,"ARG_OF_PERICENTER":111.6689,"MEAN_ANOMALY":248.4637,"EPHEMERIS_TYPE":0,"CLASSIFICATION_TYPE":"U","NORAD_CAT_ID":48800,"ELEMENT_SET_NO":999,"REV_AT_EPOCH":23041,"BSTAR":7.1455688e-5,"MEAN_MOTION_DOT":4.0e-7,"MEAN_MOTION_DDOT":0},{"OBJECT_NAME":"ONEWEB-0216","OBJECT_ID":"2021-045AL","EPOCH":"2026-03-03T14:56:27.494880","MEAN_MOTION":13.15532454,"ECCENTRICITY":0.00011635,"INCLINATION":87.8948,"RA_OF_ASC_NODE":280.2698,"ARG_OF_PERICENTER":84.9511,"MEAN_ANOMALY":275.1752,"EPHEMERIS_TYPE":0,"CLASSIFICATION_TYPE":"U","NORAD_CAT_ID":48801,"ELEMENT_SET_NO":999,"REV_AT_EPOCH":23042,"BSTAR":-0.0050800754,"MEAN_MOTION_DOT":-1.899e-5,"MEAN_MOTION_DDOT":0},{"OBJECT_NAME":"ONEWEB-0239","OBJECT_ID":"2021-045AM","EPOCH":"2026-03-03T15:03:16.627392","MEAN_MOTION":13.15547238,"ECCENTRICITY":0.00021187,"INCLINATION":87.8945,"RA_OF_ASC_NODE":280.284,"ARG_OF_PERICENTER":109.271,"MEAN_ANOMALY":250.865,"EPHEMERIS_TYPE":0,"CLASSIFICATION_TYPE":"U","NORAD_CAT_ID":48802,"ELEMENT_SET_NO":999,"REV_AT_EPOCH":23046,"BSTAR":-0.00019217999,"MEAN_MOTION_DOT":-6.0e-7,"MEAN_MOTION_DDOT":0},{"OBJECT_NAME":"ONEWEB-0249","OBJECT_ID":"2021-060A","EPOCH":"2026-03-03T13:39:31.711392","MEAN_MOTION":13.16593044,"ECCENTRICITY":0.00017306,"INCLINATION":87.9,"RA_OF_ASC_NODE":249.7892,"ARG_OF_PERICENTER":96.6371,"MEAN_ANOMALY":263.4957,"EPHEMERIS_TYPE":0,"CLASSIFICATION_TYPE":"U","NORAD_CAT_ID":48967,"ELEMENT_SET_NO":999,"REV_AT_EPOCH":22571,"BSTAR":0.00024919576,"MEAN_MOTION_DOT":1.08e-6,"MEAN_MOTION_DDOT":0},{"OBJECT_NAME":"ONEWEB-0250","OBJECT_ID":"2021-060B","EPOCH":"2026-03-03T12:02:06.870624","MEAN_MOTION":13.25827275,"ECCENTRICITY":0.00026531,"INCLINATION":87.9,"RA_OF_ASC_NODE":247.9027,"ARG_OF_PERICENTER":89.1129,"MEAN_ANOMALY":271.0311,"EPHEMERIS_TYPE":0,"CLASSIFICATION_TYPE":"U","NORAD_CAT_ID":48968,"ELEMENT_SET_NO":999,"REV_AT_EPOCH":22621,"BSTAR":0.00010898132,"MEAN_MOTION_DOT":6.1e-7,"MEAN_MOTION_DDOT":0},{"OBJECT_NAME":"ONEWEB-0252","OBJECT_ID":"2021-060D","EPOCH":"2026-03-03T14:23:58.690176","MEAN_MOTION":13.165935,"ECCENTRICITY":0.00013704,"INCLINATION":87.8998,"RA_OF_ASC_NODE":249.7758,"ARG_OF_PERICENTER":96.3403,"MEAN_ANOMALY":263.7884,"EPHEMERIS_TYPE":0,"CLASSIFICATION_TYPE":"U","NORAD_CAT_ID":48970,"ELEMENT_SET_NO":999,"REV_AT_EPOCH":22576,"BSTAR":0.00012322902,"MEAN_MOTION_DOT":6.0e-7,"MEAN_MOTION_DDOT":0},{"OBJECT_NAME":"ONEWEB-0253","OBJECT_ID":"2021-060E","EPOCH":"2026-03-03T12:18:34.960896","MEAN_MOTION":13.16593636,"ECCENTRICITY":0.00016404,"INCLINATION":87.8999,"RA_OF_ASC_NODE":249.7988,"ARG_OF_PERICENTER":99.3886,"MEAN_ANOMALY":260.7431,"EPHEMERIS_TYPE":0,"CLASSIFICATION_TYPE":"U","NORAD_CAT_ID":48971,"ELEMENT_SET_NO":999,"REV_AT_EPOCH":22568,"BSTAR":0.00032737521,"MEAN_MOTION_DOT":1.38e-6,"MEAN_MOTION_DDOT":0},{"OBJECT_NAME":"ONEWEB-0254","OBJECT_ID":"2021-060F","EPOCH":"2026-03-03T12:32:15.731520","MEAN_MOTION":13.16593464,"ECCENTRICITY":0.00018503,"INCLINATION":87.9003,"RA_OF_ASC_NODE":249.7912,"ARG_OF_PERICENTER":101.3317,"MEAN_ANOMALY":258.8022,"EPHEMERIS_TYPE":0,"CLASSIFICATION_TYPE":"U","NORAD_CAT_ID":48972,"ELEMENT_SET_NO":999,"REV_AT_EPOCH":22568,"BSTAR":0.00021508567,"MEAN_MOTION_DOT":9.5e-7,"MEAN_MOTION_DDOT":0},{"OBJECT_NAME":"ONEWEB-0255","OBJECT_ID":"2021-060G","EPOCH":"2026-03-03T13:26:59.312544","MEAN_MOTION":13.16593655,"ECCENTRICITY":0.00017647,"INCLINATION":87.8999,"RA_OF_ASC_NODE":249.7932,"ARG_OF_PERICENTER":102.6895,"MEAN_ANOMALY":257.4433,"EPHEMERIS_TYPE":0,"CLASSIFICATION_TYPE":"U","NORAD_CAT_ID":48973,"ELEMENT_SET_NO":999,"REV_AT_EPOCH":22576,"BSTAR":0.00011980163,"MEAN_MOTION_DOT":5.9e-7,"MEAN_MOTION_DDOT":0},{"OBJECT_NAME":"ONEWEB-0256","OBJECT_ID":"2021-060H","EPOCH":"2026-03-03T12:15:10.127232","MEAN_MOTION":13.16593768,"ECCENTRICITY":0.00014945,"INCLINATION":87.9002,"RA_OF_ASC_NODE":249.8105,"ARG_OF_PERICENTER":91.484,"MEAN_ANOMALY":268.6463,"EPHEMERIS_TYPE":0,"CLASSIFICATION_TYPE":"U","NORAD_CAT_ID":48974,"ELEMENT_SET_NO":999,"REV_AT_EPOCH":22572,"BSTAR":0.00039024219,"MEAN_MOTION_DOT":1.62e-6,"MEAN_MOTION_DDOT":0},{"OBJECT_NAME":"ONEWEB-0257","OBJECT_ID":"2021-060J","EPOCH":"2026-03-03T13:01:53.936832","MEAN_MOTION":13.16593383,"ECCENTRICITY":0.00015937,"INCLINATION":87.9,"RA_OF_ASC_NODE":249.788,"ARG_OF_PERICENTER":100.247,"MEAN_ANOMALY":259.8841,"EPHEMERIS_TYPE":0,"CLASSIFICATION_TYPE":"U","NORAD_CAT_ID":48975,"ELEMENT_SET_NO":999,"REV_AT_EPOCH":22568,"BSTAR":-3.1464465e-5,"MEAN_MOTION_DOT":1.0e-8,"MEAN_MOTION_DDOT":0},{"OBJECT_NAME":"ONEWEB-0258","OBJECT_ID":"2021-060K","EPOCH":"2026-03-03T13:04:11.083008","MEAN_MOTION":13.16593286,"ECCENTRICITY":0.00016793,"INCLINATION":87.8997,"RA_OF_ASC_NODE":249.799,"ARG_OF_PERICENTER":92.7005,"MEAN_ANOMALY":267.4318,"EPHEMERIS_TYPE":0,"CLASSIFICATION_TYPE":"U","NORAD_CAT_ID":48976,"ELEMENT_SET_NO":999,"REV_AT_EPOCH":22569,"BSTAR":-6.3472346e-5,"MEAN_MOTION_DOT":-1.1e-7,"MEAN_MOTION_DDOT":0},{"OBJECT_NAME":"ONEWEB-0259","OBJECT_ID":"2021-060L","EPOCH":"2026-03-03T12:55:03.378720","MEAN_MOTION":13.16593616,"ECCENTRICITY":0.00017277,"INCLINATION":87.9002,"RA_OF_ASC_NODE":249.7989,"ARG_OF_PERICENTER":98.0087,"MEAN_ANOMALY":262.124,"EPHEMERIS_TYPE":0,"CLASSIFICATION_TYPE":"U","NORAD_CAT_ID":48977,"ELEMENT_SET_NO":999,"REV_AT_EPOCH":22572,"BSTAR":8.908357e-6,"MEAN_MOTION_DOT":1.6e-7,"MEAN_MOTION_DDOT":0},{"OBJECT_NAME":"ONEWEB-0260","OBJECT_ID":"2021-060M","EPOCH":"2026-03-03T12:42:30.969504","MEAN_MOTION":13.16594072,"ECCENTRICITY":0.00011775,"INCLINATION":87.8999,"RA_OF_ASC_NODE":249.8067,"ARG_OF_PERICENTER":92.0592,"MEAN_ANOMALY":268.0674,"EPHEMERIS_TYPE":0,"CLASSIFICATION_TYPE":"U","NORAD_CAT_ID":48978,"ELEMENT_SET_NO":999,"REV_AT_EPOCH":22570,"BSTAR":-2.7875338e-5,"MEAN_MOTION_DOT":2.0e-8,"MEAN_MOTION_DDOT":0}]
